NORAD_CAT_ID,OBJECT_NAME,OBJECT_TYPE,EPOCH,MEAN_MOTION,ECCENTRICITY,INCLINATION,RA_OF_ASC_NODE,ARG_OF_PERICENTER,MEAN_ANOMALY,BSTAR,MEAN_MOTION_DOT,MEAN_MOTION_DDOT,TLE_LINE0,TLE_LINE1,TLE_LINE2,SEMIMAJOR_AXIS,PERIOD,APOGEE,PERIGEE,DECAYED
53150.0,STARLINK-4038,PAYLOAD,2023-06-17 10:17:10,15.08825669,0.0001073,53.2166,316.5125,102.6527,257.4585,-5.7851e-05,-1.208e-05,0.0,0 STARLINK-4038,1 53150U 22083U   23168.42859804 -.00001208  00000-0 -57851-4 0  9992,2 53150  53.2166 316.5125 0001073 102.6527 257.4585 15.08825669 51581,6917.924,95.438,540.531,539.047,0.0
53150.0,STARLINK-4038,PAYLOAD,2023-06-17 16:38:43,15.08822701,0.0001026,53.2167,315.3231,101.7717,258.339,-7.8988e-05,-1.544e-05,0.0,0 STARLINK-4038,1 53150U 22083U   23168.69356272 -.00001544  00000-0 -78988-4 0  9999,2 53150  53.2167 315.3231 0001026 101.7717 258.3390 15.08822701 50998,6917.933,95.439,540.508,539.088,0.0
53150.0,STARLINK-4038,PAYLOAD,2023-06-18 02:11:02,15.0883219,9.66e-05,53.2182,313.5384,101.8805,258.2296,-3.7562e-05,-8.85e-06,0.0,0 STARLINK-4038,1 53150U 22083U   23169.09099812 -.00000885  00000-0 -37562-4 0  9998,2 53150  53.2182 313.5384 0000966 101.8805 258.2296 15.08832190 51689,6917.904,95.438,540.438,539.101,0.0
53150.0,STARLINK-4038,PAYLOAD,2023-06-18 10:07:57,15.08837615,0.0001049,53.2174,312.0506,111.6445,248.4659,-1.0823e-05,-4.6e-06,0.0,0 STARLINK-4038,1 53150U 22083U   23169.42219594 -.00000460  00000-0 -10823-4 0  9996,2 53150  53.2174 312.0506 0001049 111.6445 248.4659 15.08837615 51100,6917.888,95.438,540.478,539.027,0.0
53150.0,STARLINK-4038,PAYLOAD,2023-06-18 16:29:29,15.08846737,0.0001017,53.2175,310.8625,107.1837,252.9267,8.596e-05,1.081e-05,0.0,0 STARLINK-4038,1 53150U 22083U   23169.68714783  .00001081  00000-0  85960-4 0  9996,2 53150  53.2175 310.8625 0001017 107.1837 252.9267 15.08846737 51772,6917.86,95.437,540.428,539.021,0.0
53150.0,STARLINK-4038,PAYLOAD,2023-06-19 08:23:21,15.08837772,9.92e-05,53.2175,307.8903,112.766,247.3437,0.00028587,4.264e-05,0.0,0 STARLINK-4038,1 53150U 22083U   23170.34955546  .00004264  00000-0  28587-3 0  9992,2 53150  53.2175 307.8903 0000992 112.7660 247.3437 15.08837772 51871,6917.887,95.438,540.438,539.066,0.0
53150.0,STARLINK-4038,PAYLOAD,2023-06-19 16:20:17,15.08840489,9.88e-05,53.2176,306.4036,112.1473,247.9624,0.00029056,4.34e-05,0.0,0 STARLINK-4038,1 53150U 22083U   23170.68075512  .00004340  00000-0  29056-3 0  9992,2 53150  53.2176 306.4036 0000988 112.1473 247.9624 15.08840489 51294,6917.879,95.438,540.427,539.06,0.0
53150.0,STARLINK-4038,PAYLOAD,2023-06-20 09:49:31,15.08838045,9.98e-05,53.2183,303.1332,112.223,247.8868,-4.1705e-05,-9.51e-06,0.0,0 STARLINK-4038,1 53150U 22083U   23171.40939552 -.00000951  00000-0 -41705-4 0  9998,2 53150  53.2183 303.1332 0000998 112.2230 247.8868 15.08838045 52035,6917.886,95.438,540.442,539.061,0.0
53150.0,STARLINK-4038,PAYLOAD,2023-06-20 17:46:27,15.08843959,0.0001007,53.2168,301.6451,99.1037,261.0069,-1.3412e-06,-3.09e-06,0.0,0 STARLINK-4038,1 53150U 22083U   23171.74059240 -.00000309  00000-0 -13412-5 0  9994,2 53150  53.2168 301.6451 0001007  99.1037 261.0069 15.08843959 51459,6917.868,95.437,540.43,539.037,0.0
53150.0,STARLINK-4038,PAYLOAD,2023-06-21 12:51:04,15.08842944,9.65e-05,53.2166,298.0767,93.8216,266.2886,9.3668e-05,1.203e-05,0.0,0 STARLINK-4038,1 53150U 22083U   23172.53547427  .00001203  00000-0  93668-4 0  9993,2 53150  53.2166 298.0767 0000965  93.8216 266.2886 15.08842944 51578,6917.871,95.437,540.404,539.069,0.0
53150.0,STARLINK-4038,PAYLOAD,2023-06-21 16:01:50,15.08846961,8.65e-05,53.2176,297.4824,94.2685,265.8406,9.0998e-05,1.161e-05,0.0,0 STARLINK-4038,1 53150U 22083U   23172.66795135  .00001161  00000-0  90998-4 0  9994,2 53150  53.2176 297.4824 0000865  94.2685 265.8406 15.08846961 52229,6917.859,95.437,540.323,539.126,0.0
53150.0,STARLINK-4038,PAYLOAD,2023-06-22 07:55:43,15.08833076,9.8e-05,53.2182,294.5083,97.5086,262.6018,6.5393e-05,7.53e-06,0.0,0 STARLINK-4038,1 53150U 22083U   23173.33036317  .00000753  00000-0  65393-4 0  9996,2 53150  53.2182 294.5083 0000980  97.5086 262.6018 15.08833076 52328,6917.902,95.438,540.445,539.089,0.0
53150.0,STARLINK-4038,PAYLOAD,2023-06-23 01:24:57,15.08842873,9.07e-05,53.217,291.2372,85.7941,274.3155,7.3277e-05,8.79e-06,0.0,0 STARLINK-4038,1 53150U 22083U   23174.05899863  .00000879  00000-0  73277-4 0  9998,2 53150  53.2170 291.2372 0000907  85.7941 274.3155 15.08842873 52437,6917.872,95.437,540.364,539.109,0.0
53150.0,STARLINK-4038,PAYLOAD,2023-06-23 14:08:02,15.08859603,9.39e-05,53.2165,288.8577,78.3562,281.7536,0.0004845,7.435e-05,0.0,0 STARLINK-4038,1 53150U 22083U   23174.58891275  .00007435  00000-0  48450-3 0  9994,2 53150  53.2165 288.8577 0000939  78.3562 281.7536 15.08859603 52515,6917.82,95.436,540.335,539.036,0.0
53150.0,STARLINK-4038,PAYLOAD,2023-06-24 07:37:16,15.08846652,9.58e-05,53.2153,285.5875,56.517,303.5913,0.00021818,3.187e-05,0.0,0 STARLINK-4038,1 53150U 22083U   23175.31755747  .00003187  00000-0  21818-3 0  9998,2 53150  53.2153 285.5875 0000958  56.5170 303.5913 15.08846652 52625,6917.86,95.437,540.388,539.062,0.0
53150.0,STARLINK-4038,PAYLOAD,2023-06-25 05:52:40,15.08843072,0.0001133,53.2175,281.4258,78.2721,281.8399,0.00015157,2.125e-05,0.0,0 STARLINK-4038,1 53150U 22083U   23176.24491686  .00002125  00000-0  15157-3 0  9990,2 53150  53.2175 281.4258 0001133  78.2721 281.8399 15.08843072 52762,6917.871,95.437,540.52,538.952,0.0
53150.0,STARLINK-4038,PAYLOAD,2023-06-25 13:49:35,15.08851694,9.54e-05,53.2162,279.9367,77.6697,282.4402,0.00018849,2.714e-05,0.0,0 STARLINK-4038,1 53150U 22083U   23176.57611072  .00002714  00000-0  18849-3 0  9994,2 53150  53.2162 279.9367 0000954  77.6697 282.4402 15.08851694 52813,6917.845,95.437,540.37,539.05,0.0
53150.0,STARLINK-4038,PAYLOAD,2023-06-25 23:21:55,15.08840014,0.0001036,53.2163,278.1519,82.1686,277.9424,4.9028e-05,4.93e-06,0.0,0 STARLINK-4038,1 53150U 22083U   23176.97355601  .00000493  00000-0  49028-4 0  9997,2 53150  53.2163 278.1519 0001036  82.1686 277.9424 15.08840014 52878,6917.88,95.438,540.462,539.029,0.0
53150.0,STARLINK-4038,PAYLOAD,2023-06-26 07:18:51,15.08834823,0.0001186,53.2163,276.666,100.5482,259.5644,1.6901e-06,-2.61e-06,0.0,0 STARLINK-4038,1 53150U 22083U   23177.30476099 -.00000261  00000-0  16901-5 0  9999,2 53150  53.2163 276.6660 0001186 100.5482 259.5644 15.08834823 52920,6917.896,95.438,540.582,538.941,0.0
53150.0,STARLINK-4038,PAYLOAD,2023-06-27 10:20:24,15.08842861,0.0001038,53.2166,271.6113,104.8685,255.2422,0.00027883,4.153e-05,0.0,0 STARLINK-4038,1 53150U 22083U   23178.43084159  .00004153  00000-0  27883-3 0  9998,2 53150  53.2166 271.6113 0001038 104.8685 255.2422 15.08842861 53096,6917.872,95.437,540.455,539.019,0.0
53150.0,STARLINK-4038,PAYLOAD,2023-06-28 10:11:12,15.08818883,6.94e-05,53.2162,267.1514,64.975,295.1314,-0.00023088,-3.958e-05,0.0,0 STARLINK-4038,1 53150U 22083U   23179.42445289 -.00003958  00000-0 -23088-3 0  9990,2 53150  53.2162 267.1514 0000694  64.9750 295.1314 15.08818883 53240,6917.945,95.439,540.29,539.33,0.0
53150.0,STARLINK-4038,PAYLOAD,2023-06-29 11:37:23,15.08830023,8.02e-05,53.2159,262.3938,78.652,281.4562,0.00023596,3.469e-05,0.0,0 STARLINK-4038,1 53150U 22083U   23180.48430177  .00003469  00000-0  23596-3 0  9997,2 53150  53.2159 262.3938 0000802  78.6520 281.4562 15.08830023 53402,6917.911,95.438,540.331,539.221,0.0
53150.0,STARLINK-4038,PAYLOAD,2023-06-30 22:35:51,15.08858686,7.34e-05,53.2156,255.851,71.6516,288.4556,0.00025866,3.833e-05,0.0,0 STARLINK-4038,1 53150U 22083U   23181.94157141  .00003833  00000-0  25866-3 0  9993,2 53150  53.2156 255.8510 0000734  71.6516 288.4556 15.08858686 53623,6917.823,95.436,540.196,539.181,0.0
53150.0,STARLINK-4038,PAYLOAD,2023-07-01 11:18:56,15.08854211,7.76e-05,53.2159,253.4722,76.2966,283.8112,0.00019297,2.786e-05,0.0,0 STARLINK-4038,1 53150U 22083U   23182.47148836  .00002786  00000-0  19297-3 0  9990,2 53150  53.2159 253.4722 0000776  76.2966 283.8112 15.08854211 53707,6917.837,95.437,540.239,539.165,0.0
53150.0,STARLINK-4038,PAYLOAD,2023-07-02 12:45:06,15.08860257,7.06e-05,53.216,248.7143,77.3725,282.7346,0.00031981,4.809e-05,0.0,0 STARLINK-4038,1 53150U 22083U   23183.53131983  .00004809  00000-0  31981-3 0  9995,2 53150  53.2160 248.7143 0000706  77.3725 282.7346 15.08860257 53862,6917.818,95.436,540.172,539.195,0.0
53150.0,STARLINK-4038,PAYLOAD,2023-07-03 11:00:31,15.08809086,8.64e-05,53.2156,244.5522,68.8741,291.2344,-0.00053162,-8.731e-05,0.0,0 STARLINK-4038,1 53150U 22083U   23184.45870099 -.00008731  00000-0 -53162-3 0  9990,2 53150  53.2156 244.5522 0000864  68.8741 291.2344 15.08809086 54003,6917.975,95.44,540.438,539.242,0.0
53150.0,STARLINK-4038,PAYLOAD,2023-07-04 02:54:23,15.08833027,7.11e-05,53.2149,241.5779,62.4304,297.676,0.0002495,3.685e-05,0.0,0 STARLINK-4038,1 53150U 22083U   23185.12110115  .00003685  00000-0  24950-3 0  9995,2 53150  53.2149 241.5779 0000711  62.4304 297.6760 15.08833027 54107,6917.902,95.438,540.259,539.275,0.0
53150.0,STARLINK-4038,PAYLOAD,2023-07-04 20:23:37,15.08851809,0.000102,53.2145,238.307,55.9212,304.1877,0.00099255,0.00015549,0.0,0 STARLINK-4038,1 53150U 22083U   23185.84974341  .00015549  00000-0  99255-3 0  9995,2 53150  53.2145 238.3070 0001020  55.9212 304.1877 15.08851809 54213,6917.844,95.437,540.415,539.004,0.0
53150.0,STARLINK-4038,PAYLOAD,2023-07-06 02:35:56,15.08855981,0.0001728,53.2126,232.6589,47.3948,312.719,0.00018352,2.635e-05,0.0,0 STARLINK-4038,1 53150U 22083U   23187.10829006  .00002635  00000-0  18352-3 0  9994,2 53150  53.2126 232.6589 0001728  47.3948 312.7190 15.08855981 54409,6917.832,95.437,540.892,538.501,0.0
53150.0,STARLINK-4038,PAYLOAD,2023-07-06 12:08:14,15.08849136,0.0001071,53.2135,230.8722,63.3933,296.7169,4.3307e-05,4.02e-06,0.0,0 STARLINK-4038,1 53150U 22083U   23187.50572795  .00000402  00000-0  43307-4 0  9997,2 53150  53.2135 230.8722 0001071  63.3933 296.7169 15.08849136 54469,6917.852,95.437,540.458,538.977,0.0
